EUTELSAT QUANTUM        
1 49056U 21069B   25358.98328404  .00000147  00000+0  00000+0 0  9993
2 49056   0.0115  15.7317 0003480 266.2745 213.4278  1.00270986 16180
EUTELSAT KONNECT VHTS   
1 53765U 22110A   25358.90303020  .00000038  00000+0  00000+0 0  9991
2 53765   0.0601  98.2899 0002493 150.2235 172.9674  1.00267478  5079
EUTELSAT HOTBIRD 13F    
1 54048U 22134A   25358.69104216  .00000108  00000+0  00000+0 0  9992
2 54048   0.0550 289.1731 0002200  72.2821 353.7761  1.00270762 11627
EUTELSAT HOTBIRD 13G    
1 54225U 22146A   25358.01989183  .00000108  00000+0  00000+0 0  9992
2 54225   0.0535 227.8066 0001713 307.3490 297.8001  1.00268836  5716
EUTELSAT 10B            
1 54259U 22157A   25359.04715777  .00000089  00000+0  00000+0 0  9999
2 54259   0.0600  95.6031 0000683  57.2113 328.0007  1.00270064 11285
EUTELSAT 36D            
1 59346U 24059A   25358.90961691  .00000177  00000+0  00000+0 0  9994
2 59346   0.0185  36.8149 0000634 305.8613 114.3448  1.00275345  6405
